{
  "norad_id": 59712,
  "name": "STARLINK-11108 [DTC]",
  "history": [
    {
      "epoch": "2026-03-28T20:59:53.994336Z",
      "apogee_km": 360.2114211425005,
      "perigee_km": 359.26003351340205,
      "latitude_deg": 6.784945770638986e-05,
      "longitude_deg": 90.5660673913583,
      "height_km": 360.8083346107946,
      "semi_major_axis_km": 6737.872727327951,
      "eccentricity": 7.06e-05,
      "inclination_deg": 53.158,
      "raan_deg": 231.8301,
      "arg_perigee_deg": 109.477,
      "mean_anomaly_deg": 250.6325,
      "mean_motion_rev_day": 15.69706863
    },
    {
      "epoch": "2026-03-29T21:26:49.759872Z",
      "apogee_km": 360.5099986997575,
      "perigee_km": 358.8349792607969,
      "latitude_deg": -3.3353681776366696e-05,
      "longitude_deg": 77.80705848331715,
      "height_km": 360.2028696949174,
      "semi_major_axis_km": 6737.809488980277,
      "eccentricity": 0.0001243,
      "inclination_deg": 53.1579,
      "raan_deg": 226.8076,
      "arg_perigee_deg": 62.7818,
      "mean_anomaly_deg": 297.3326,
      "mean_motion_rev_day": 15.69728962
    },
    {
      "epoch": "2026-03-29T21:26:49.760736Z",
      "apogee_km": 360.51006607785166,
      "perigee_km": 358.8349118827018,
      "latitude_deg": -3.41737072162402e-05,
      "longitude_deg": 77.80705426250863,
      "height_km": 360.2028388780614,
      "semi_major_axis_km": 6737.809488980277,
      "eccentricity": 0.00012431,
      "inclination_deg": 53.1579,
      "raan_deg": 226.8076,
      "arg_perigee_deg": 62.7818,
      "mean_anomaly_deg": 297.3326,
      "mean_motion_rev_day": 15.69728962
    },
    {
      "epoch": "2026-03-30T12:43:41.962656Z",
      "apogee_km": 361.2145788492726,
      "perigee_km": 358.4234479502811,
      "latitude_deg": 1.6662324995266387e-05,
      "longitude_deg": -155.17569043299258,
      "height_km": 359.4061706344661,
      "semi_major_axis_km": 6737.956013399777,
      "eccentricity": 0.00020712,
      "inclination_deg": 53.1583,
      "raan_deg": 223.6699,
      "arg_perigee_deg": 342.1595,
      "mean_anomaly_deg": 17.935,
      "mean_motion_rev_day": 15.69677759
    },
    {
      "epoch": "2026-03-30T20:22:08.404896Z",
      "apogee_km": 360.3878877093257,
      "perigee_km": 359.353064521144,
      "latitude_deg": 2.857467525350619e-05,
      "longitude_deg": 88.33055129838826,
      "height_km": 360.56739415857714,
      "semi_major_axis_km": 6738.007476115235,
      "eccentricity": 7.679e-05,
      "inclination_deg": 53.158,
      "raan_deg": 222.1001,
      "arg_perigee_deg": 65.1995,
      "mean_anomaly_deg": 294.9103,
      "mean_motion_rev_day": 15.69659776
    },
    {
      "epoch": "2026-03-31T08:35:35.736000Z",
      "apogee_km": 360.76280351740115,
      "perigee_km": 358.7880561424654,
      "latitude_deg": 5.658545309540419e-06,
      "longitude_deg": -98.0438771610935,
      "height_km": 359.71165750354027,
      "semi_major_axis_km": 6737.912429829933,
      "eccentricity": 0.00014654,
      "inclination_deg": 53.1601,
      "raan_deg": 219.5916,
      "arg_perigee_deg": 7.6369,
      "mean_anomaly_deg": 352.4671,
      "mean_motion_rev_day": 15.69692989
    },
    {
      "epoch": "2026-04-01T15:09:16.036704Z",
      "apogee_km": 360.73108043823504,
      "perigee_km": 358.76900773099715,
      "latitude_deg": -5.4893436849342844e-05,
      "longitude_deg": 156.00135613811804,
      "height_km": 360.1675634542421,
      "semi_major_axis_km": 6737.887044084616,
      "eccentricity": 0.0001456,
      "inclination_deg": 53.1567,
      "raan_deg": 213.3099,
      "arg_perigee_deg": 59.658,
      "mean_anomaly_deg": 300.4581,
      "mean_motion_rev_day": 15.6970186
    },
    {
      "epoch": "2026-04-02T17:07:52.314816Z",
      "apogee_km": 360.83855537640557,
      "perigee_km": 358.5439205916773,
      "latitude_deg": 8.383870286740078e-05,
      "longitude_deg": 119.94977469124078,
      "height_km": 360.6023084088409,
      "semi_major_axis_km": 6737.828237984041,
      "eccentricity": 0.00017028,
      "inclination_deg": 53.1567,
      "raan_deg": 207.9762,
      "arg_perigee_deg": 89.9309,
      "mean_anomaly_deg": 270.1905,
      "mean_motion_rev_day": 15.6972241
    },
    {
      "epoch": "2026-04-03T17:34:50.560032Z",
      "apogee_km": 360.6906399450063,
      "perigee_km": 358.99671160311664,
      "latitude_deg": 4.23511618507866e-05,
      "longitude_deg": 107.18174972113711,
      "height_km": 360.5752689484183,
      "semi_major_axis_km": 6737.980675774062,
      "eccentricity": 0.0001257,
      "inclination_deg": 53.1587,
      "raan_deg": 202.955,
      "arg_perigee_deg": 77.6098,
      "mean_anomaly_deg": 282.5061,
      "mean_motion_rev_day": 15.69669141
    },
    {
      "epoch": "2026-04-04T13:26:42.200160Z",
      "apogee_km": 360.4797652145953,
      "perigee_km": 358.9583573159616,
      "latitude_deg": -4.743115486259644e-05,
      "longitude_deg": 164.3223154386365,
      "height_km": 360.3933000471878,
      "semi_major_axis_km": 6737.856061265278,
      "eccentricity": 0.0001129,
      "inclination_deg": 53.1578,
      "raan_deg": 198.8766,
      "arg_perigee_deg": 71.6703,
      "mean_anomaly_deg": 288.4437,
      "mean_motion_rev_day": 15.69712687
    },
    {
      "epoch": "2026-04-05T12:21:59.150880Z",
      "apogee_km": 360.24535797704175,
      "perigee_km": 359.29436980227183,
      "latitude_deg": -5.490528927174353e-06,
      "longitude_deg": 174.85076991513276,
      "height_km": 360.54348655656025,
      "semi_major_axis_km": 6737.906863889656,
      "eccentricity": 7.057e-05,
      "inclination_deg": 53.1585,
      "raan_deg": 194.167,
      "arg_perigee_deg": 72.8224,
      "mean_anomaly_deg": 287.2871,
      "mean_motion_rev_day": 15.69694934
    },
    {
      "epoch": "2026-04-07T11:44:10.813920Z",
      "apogee_km": 360.4622314679373,
      "perigee_km": 359.0176306539188,
      "latitude_deg": 2.9519669967754942e-05,
      "longitude_deg": 172.62598228617455,
      "height_km": 360.67791641736,
      "semi_major_axis_km": 6737.876931060928,
      "eccentricity": 0.0001072,
      "inclination_deg": 53.1589,
      "raan_deg": 184.4362,
      "arg_perigee_deg": 91.9371,
      "mean_anomaly_deg": 268.177,
      "mean_motion_rev_day": 15.69705394
    },
    {
      "epoch": "2026-04-08T10:39:25.921728Z",
      "apogee_km": 360.22019010050826,
      "perigee_km": 359.2700139664794,
      "latitude_deg": -4.951368316313247e-05,
      "longitude_deg": -176.836355070387,
      "height_km": 360.64559293096414,
      "semi_major_axis_km": 6737.8821020334935,
      "eccentricity": 7.051e-05,
      "inclination_deg": 53.1588,
      "raan_deg": 179.7282,
      "arg_perigee_deg": 88.3642,
      "mean_anomaly_deg": 271.7456,
      "mean_motion_rev_day": 15.69703587
    },
    {
      "epoch": "2026-04-09T11:06:22.254912Z",
      "apogee_km": 360.1001552587604,
      "perigee_km": 359.3522524431337,
      "latitude_deg": 1.667262239386673e-05,
      "longitude_deg": 170.40298558727955,
      "height_km": 360.6947972318879,
      "semi_major_axis_km": 6737.863203850947,
      "eccentricity": 5.55e-05,
      "inclination_deg": 53.1588,
      "raan_deg": 174.7063,
      "arg_perigee_deg": 98.3568,
      "mean_anomaly_deg": 261.7513,
      "mean_motion_rev_day": 15.69710191
    },
    {
      "epoch": "2026-04-11T10:28:34.597056Z",
      "apogee_km": 360.3827662085341,
      "perigee_km": 359.098526729118,
      "latitude_deg": 3.910946052517791e-06,
      "longitude_deg": 168.1765251762224,
      "height_km": 360.5640568588167,
      "semi_major_axis_km": 6737.877646468826,
      "eccentricity": 9.53e-05,
      "inclination_deg": 53.159,
      "raan_deg": 164.9767,
      "arg_perigee_deg": 81.9116,
      "mean_anomaly_deg": 278.201,
      "mean_motion_rev_day": 15.69705144
    },
    {
      "epoch": "2026-04-12T15:30:32.995872Z",
      "apogee_km": 360.34855218686334,
      "perigee_km": 359.0026067459885,
      "latitude_deg": -6.56044415890926e-08,
      "longitude_deg": 85.52785424183095,
      "height_km": 360.2644115869011,
      "semi_major_axis_km": 6737.812579466426,
      "eccentricity": 9.988e-05,
      "inclination_deg": 53.1595,
      "raan_deg": 159.0137,
      "arg_perigee_deg": 61.1147,
      "mean_anomaly_deg": 298.9971,
      "mean_motion_rev_day": 15.69727882
    },
    {
      "epoch": "2026-04-14T10:17:42.899136Z",
      "apogee_km": 360.46347171085563,
      "perigee_km": 359.0287068858206,
      "latitude_deg": 1.905506565044869e-05,
      "longitude_deg": 153.19164390130706,
      "height_km": 360.5001932453286,
      "semi_major_axis_km": 6737.883089298338,
      "eccentricity": 0.00010647,
      "inclination_deg": 53.159,
      "raan_deg": 150.2259,
      "arg_perigee_deg": 77.1516,
      "mean_anomaly_deg": 282.9621,
      "mean_motion_rev_day": 15.69703242
    },
    {
      "epoch": "2026-04-15T19:54:45.343872Z",
      "apogee_km": 360.4969475210164,
      "perigee_km": 358.9607141115903,
      "latitude_deg": -3.76962534437287e-05,
      "longitude_deg": 0.6453024113462348,
      "height_km": 360.65838920957606,
      "semi_major_axis_km": 6737.865830816303,
      "eccentricity": 0.000114,
      "inclination_deg": 53.159,
      "raan_deg": 143.3204,
      "arg_perigee_deg": 91.1979,
      "mean_anomaly_deg": 268.9169,
      "mean_motion_rev_day": 15.69709273
    },
    {
      "epoch": "2026-04-16T18:50:00.731616Z",
      "apogee_km": 360.4818020479597,
      "perigee_km": 358.973867897892,
      "latitude_deg": -6.06581306725983e-06,
      "longitude_deg": 11.18218260101445,
      "height_km": 360.63399605026285,
      "semi_major_axis_km": 6737.864834972926,
      "eccentricity": 0.0001119,
      "inclination_deg": 53.1588,
      "raan_deg": 138.6127,
      "arg_perigee_deg": 89.4421,
      "mean_anomaly_deg": 270.6725,
      "mean_motion_rev_day": 15.69709621
    }
  ]
}